{
"type": "FeatureCollection",
"name": "monumente_punct_postgis",
"crs": { "type": "name", "properties": { "name": "urn:ogc:def:crs:OGC:1.3:CRS84" } },
"features": [
{ "type": "Feature", "properties": { "fid": 1, "Regiune": "SUD-EST", "Judet": "BZ", "UAT": "Breaza", "Localitate": "Breaza", "SIRSUP": 45619, "SIRUTA": 45628, "Cod_LMI_main": "BZ-IV-m-B-02517", "Cod_LMI_secondary": null, "Denumire": "Cruce de piatra - \"Batranele\"", "Adresa": null, "Obs": "Se afla in mijlocul unei zone viticole." }, "geometry": { "type": "Point", "coordinates": [ 26.523953471536668, 45.078019235919243 ] } },
{ "type": "Feature", "properties": { "fid": 2, "Regiune": "SUD-EST", "Judet": "BZ", "UAT": "Breaza", "Localitate": "Greceanca", "SIRSUP": 45619, "SIRUTA": 45646, "Cod_LMI_main": "BZ-IV-m-B-02525", "Cod_LMI_secondary": null, "Denumire": "Cruce de piatra", "Adresa": "Greceanca, DJ205", "Obs": "Este vis-a-vis de scoala din satul Greceanca, comuna Breaza." }, "geometry": { "type": "Point", "coordinates": [ 26.546781688976413, 45.076981796219194 ] } },
{ "type": "Feature", "properties": { "fid": 3, "Regiune": "SUD-EST", "Judet": "BZ", "UAT": "Breaza", "Localitate": "Greceanca", "SIRSUP": 45619, "SIRUTA": 45646, "Cod_LMI_main": "BZ-IV-m-B-02526", "Cod_LMI_secondary": null, "Denumire": "Crucea Manafului", "Adresa": "\"Drumul Mare\", la 1 km S de sat, in vii", "Obs": null }, "geometry": { "type": "Point", "coordinates": [ 26.512298006419211, 45.062834764330113 ] } },
{ "type": "Feature", "properties": { "fid": 4, "Regiune": "SUD-EST", "Judet": "BZ", "UAT": "Breaza", "Localitate": "Greceanca", "SIRSUP": 45619, "SIRUTA": 45646, "Cod_LMI_main": "BZ-IV-m-B-02527", "Cod_LMI_secondary": null, "Denumire": "Cruce de piatra", "Adresa": "Greceanca, DJ103R, nr. 107", "Obs": "Se afla in curtea lui R. Silea." }, "geometry": { "type": "Point", "coordinates": [ 26.544719589678355, 45.075830906331568 ] } },
{ "type": "Feature", "properties": { "fid": 5, "Regiune": "SUD-EST", "Judet": "BZ", "UAT": "Breaza", "Localitate": "Greceanca", "SIRSUP": 45619, "SIRUTA": 45646, "Cod_LMI_main": "BZ-IV-m-B-02528", "Cod_LMI_secondary": null, "Denumire": "Cruce de piatra", "Adresa": "Greceanca, nr. 307", "Obs": "In curtea lui Dedu Ion / Gh. Chirbea." }, "geometry": { "type": "Point", "coordinates": [ 26.546696233130824, 45.077211315782307 ] } },
{ "type": "Feature", "properties": { "fid": 6, "Regiune": "SUD-EST", "Judet": "BZ", "UAT": "Cernatesti", "Localitate": "Zarnestii de Slanic", "SIRSUP": 46019, "SIRUTA": 46091, "Cod_LMI_main": "BZ-IV-m-B-02551", "Cod_LMI_secondary": null, "Denumire": "Crucea lui Parlat", "Adresa": "Str. Caminului", "Obs": "In LMI, apare Crucea lui Parlat, iar in PUG, Crucea lui Parlac." }, "geometry": { "type": "Point", "coordinates": [ 26.751547624221921, 45.28634758936056 ] } }
]
}
